CSS (TIANHE)            
1 48274U 21035A   23287.34759406  .00042611  00000+0  48632-3 0  9995
2 48274  41.4707 150.4132 0001862  76.3729 283.7317 15.61420179140469
